STARLINK-36211          
1 67218U 25304AC  26068.67935196  .00001621  00000+0  14363-3 0  9995
2 67218  70.0017 174.4561 0003447 278.5173  81.5596 14.98335083 13855
QPS-SAR-15 (SUKUNAMI-I) 
1 67228U 25307A   26067.99718845  .00007522  00000+0  63967-3 0  9993
2 67228  42.0068  57.7223 0008196  56.4325 303.7282 14.98074148 11656
